OBJECT_NAME,OBJECT_ID,EPOCH,MEAN_MOTION,ECCENTRICITY,INCLINATION,RA_OF_ASC_NODE,ARG_OF_PERICENTER,MEAN_ANOMALY,EPHEMERIS_TYPE,CLASSIFICATION_TYPE,NORAD_CAT_ID,ELEMENT_SET_NO,REV_AT_EPOCH,BSTAR,MEAN_MOTION_DOT,MEAN_MOTION_DDOT
JCSAT-3A,2006-033A,2026-07-06T19:39:57.835296,1.00272556,.0002575,0.0348,283.3244,195.2506,229.2117,0,U,29272,999,4793,0,-.33E-5,0
KOREASAT 5 (MUGUNGWHA 5),2006-034A,2026-07-06T19:22:39.847296,1.00271476,.0001825,1.8325,82.7575,67.6381,178.1162,0,U,29349,999,4151,0,-.344E-5,0
DIRECTV 9S,2006-043A,2026-07-06T20:09:25.331328,1.00271269,.0005186,2.4682,80.6710,28.2696,17.0344,0,U,29494,999,5158,0,-.1E-5,0
OPTUS D1,2006-043B,2026-07-06T19:38:50.762112,1.00271796,.0003533,3.0820,79.4210,24.0023,268.0562,0,U,29495,999,7231,0,-.17E-5,0
BADR-4,2006-051A,2026-07-06T18:34:41.259360,1.00272666,.0005056,2.0521,80.9155,25.0215,131.9169,0,U,29526,999,5146,0,.17E-5,0
WILDBLUE-1,2006-054A,2026-07-06T14:58:32.914848,1.00271947,.0001423,2.8499,80.2451,28.2699,289.5148,0,U,29643,999,5398,0,-.36E-6,0
SKYNET 5A,2007-007B,2026-07-06T17:40:07.159872,1.00272416,.000361,5.3489,73.5037,35.4228,176.0301,0,U,30794,999,7089,0,-.259E-5,0
ANIK F3,2007-009A,2026-07-06T16:39:07.542720,1.00271582,.0002655,1.2447,83.6315,26.1435,305.9616,0,U,31102,999,4675,0,.13E-6,0
ASTRA 1L,2007-016A,2026-07-06T20:31:17.425056,1.00270441,.0005447,1.3693,81.4311,26.8203,99.9026,0,U,31306,999,4518,0,-.17E-5,0
GALAXY 17 (G-17),2007-016B,2026-07-06T20:14:02.386752,1.00271960,.0003765,3.0181,79.6565,24.5113,39.1362,0,U,31307,999,7000,0,-.193E-5,0
INTELSAT 11 (IS-11),2007-044B,2026-07-06T17:24:20.063808,0.99049194,.0003774,3.6129,78.4370,94.8686,52.3050,0,U,32253,999,6864,0,.55E-6,0
WGS F1 (USA 195),2007-046A,2026-07-06T11:52:51.570048,1.00274519,.0000585,0.0183,77.0681,128.8901,214.2607,0,U,32258,999,5252,0,-.252E-5,0
SKYNET 5B,2007-056B,2026-07-06T20:45:20.714976,1.00270753,.0003712,5.3009,73.2702,32.6888,155.2882,0,U,32294,999,6839,0,.152E-5,0
ASTRA 4A,2007-057A,2026-07-06T20:39:39.123072,1.00273814,.0002545,0.0450,282.9813,190.7142,125.8742,0,U,32299,999,5184,0,.48E-6,0
HORIZONS-2,2007-063B,2026-07-06T20:17:09.587904,1.00272485,.0003833,2.6495,80.3905,12.9163,62.0112,0,U,32388,999,6801,0,-.24E-5,0
THURAYA-3,2008-001A,2026-07-06T15:48:24.270336,1.00265965,.0002153,6.0202,35.8083,73.1978,116.4451,0,U,32404,999,6768,0,.22E-6,0
THOR 5,2008-006A,2026-07-06T20:38:01.777920,1.00272613,.0002493,0.0563,248.7406,225.5994,119.2607,0,U,32487,999,6751,0,.6E-7,0
AMC-14,2008-011A,2026-07-06T01:22:21.654912,1.00420312,.00402361,24.0321,20.2923,7.8887,350.3651,0,U,32708,999,6835,0,-.128E-5,0
DIRECTV 11,2008-013A,2026-07-06T15:01:55.091712,1.00269705,.0000241,0.0429,214.4667,227.3670,329.0652,0,U,32729,999,4578,0,-.111E-5,0
ICO G1,2008-016A,2026-07-06T03:05:11.714784,1.00270218,.00020163,5.5325,36.0865,56.9850,144.4776,0,U,32763,999,6673,0,-.16E-5,0
VINASAT-1,2008-018A,2026-07-06T14:25:13.191168,1.00270915,.0001411,0.0250,302.8791,177.8875,152.0614,0,U,32767,999,6678,0,-.314E-5,0
STAR ONE C2,2008-018B,2026-07-06T20:19:46.835904,1.00271273,.0002818,1.2875,82.2905,37.7495,44.7279,0,U,32768,999,6685,0,-.262E-5,0
AMOS-3,2008-022A,2026-07-06T20:53:38.981184,1.00485833,.0002856,0.5028,85.9586,77.8266,128.2676,0,U,32794,999,8253,0,.73E-6,0
GALAXY 18 (G-18),2008-024A,2026-07-06T18:20:25.797408,1.00272470,.0002939,0.0166,295.8171,179.6454,321.3889,0,U,32951,999,4604,0,.4E-6,0
ZHONGXING-9,2008-028A,2026-07-06T21:04:37.928064,1.00272963,.0003785,0.8161,85.1196,8.8925,239.3795,0,U,33051,999,6623,0,-.234E-5,0
SKYNET 5C,2008-030A,2026-07-06T20:33:09.745056,1.00270325,.00043,3.8360,76.8100,39.4403,99.0654,0,U,33055,999,6615,0,-.127E-5,0
TURKSAT 3A,2008-030B,2026-07-06T19:07:31.922400,1.00273134,.0004965,0.0562,79.4560,6.9332,167.2621,0,U,33056,999,5255,0,.161E-5,0
ECHOSTAR 11,2008-035A,2026-07-06T14:58:55.378848,1.00271954,.0002334,1.0522,83.9746,18.5914,296.9753,0,U,33207,999,5140,0,-.44E-6,0
SUPERBIRD-C2,2008-038A,2026-07-06T17:51:43.549056,1.00273065,.0006263,2.4082,81.0269,34.2306,213.3958,0,U,33274,999,10592,0,-.292E-5,0
INMARSAT 4-F3,2008-039A,2026-07-06T16:44:37.017024,1.00271053,.0002716,4.3094,31.6786,79.1093,327.0318,0,U,33278,999,4674,0,-.128E-5,0
NIMIQ 4,2008-044A,2026-07-06T20:14:54.803040,1.00270088,.0001912,0.0179,37.6259,58.1105,50.7967,0,U,33373,999,6518,0,-.205E-5,0
GALAXY 19 (G-19),2008-045A,2026-07-06T20:10:25.235040,1.00271843,.0002822,0.0591,254.1650,234.2439,2.0042,0,U,33376,999,6510,0,-.124E-5,0
