JCSAT-3A                
1 29272U 06033A   26187.81941939 -.00000330  00000+0  00000+0 0  9997
2 29272   0.0348 283.3244 0002575 195.2506 229.2117  1.00272556 47937
KOREASAT 5 (MUGUNGWHA 5)
1 29349U 06034A   26187.80740564 -.00000344  00000+0  00000+0 0  9998
2 29349   1.8325  82.7575 0001825  67.6381 178.1162  1.00271476 41514
DIRECTV 9S              
1 29494U 06043A   26187.83987652 -.00000100  00000+0  00000+0 0  9993
2 29494   2.4682  80.6710 0005186  28.2696  17.0344  1.00271269 51583
OPTUS D1                
1 29495U 06043B   26187.81864308 -.00000170  00000+0  00000+0 0  9991
2 29495   3.0820  79.4210 0003533  24.0023 268.0562  1.00271796 72317
BADR-4                  
1 29526U 06051A   26187.77408865  .00000170  00000+0  00000+0 0  9991
2 29526   2.0521  80.9155 0005056  25.0215 131.9169  1.00272666 51461
WILDBLUE-1              
1 29643U 06054A   26187.62399207 -.00000036  00000+0  00000+0 0  9999
2 29643   2.8499  80.2451 0001423  28.2699 289.5148  1.00271947 53987
SKYNET 5A               
1 30794U 07007B   26187.73619398 -.00000259  00000+0  00000+0 0  9992
2 30794   5.3489  73.5037 0003610  35.4228 176.0301  1.00272416 70898
ANIK F3                 
1 31102U 07009A   26187.69383730  .00000013  00000+0  00000+0 0  9998
2 31102   1.2447  83.6315 0002655  26.1435 305.9616  1.00271582 46750
ASTRA 1L                
1 31306U 07016A   26187.85506279 -.00000170  00000+0  00000+0 0  9990
2 31306   1.3693  81.4311 0005447  26.8203  99.9026  1.00270441 45188
GALAXY 17 (G-17)        
1 31307U 07016B   26187.84308318 -.00000193  00000+0  00000+0 0  9999
2 31307   3.0181  79.6565 0003765  24.5113  39.1362  1.00271960 70001
INTELSAT 11 (IS-11)     
1 32253U 07044B   26187.72523222  .00000055  00000+0  00000+0 0  9997
2 32253   3.6129  78.4370 0003774  94.8686  52.3050  0.99049194 68643
WGS F1 (USA 195)        
1 32258U 07046A   26187.49504132 -.00000252  00000+0  00000+0 0  9997
2 32258   0.0183  77.0681 0000585 128.8901 214.2607  1.00274519 52525
SKYNET 5B               
1 32294U 07056B   26187.86482309  .00000152  00000+0  00000+0 0  9998
2 32294   5.3009  73.2702 0003712  32.6888 155.2882  1.00270753 68390
ASTRA 4A                
1 32299U 07057A   26187.86086948  .00000048  00000+0  00000+0 0  9997
2 32299   0.0450 282.9813 0002545 190.7142 125.8742  1.00273814 51842
HORIZONS-2              
1 32388U 07063B   26187.84524986 -.00000240  00000+0  00000+0 0  9995
2 32388   2.6495  80.3905 0003833  12.9163  62.0112  1.00272485 68012
THURAYA-3               
1 32404U 08001A   26187.65861424  .00000022  00000+0  00000+0 0  9994
2 32404   6.0202  35.8083 0002153  73.1978 116.4451  1.00265965 67681
THOR 5                  
1 32487U 08006A   26187.85974280  .00000006  00000+0  00000+0 0  9999
2 32487   0.0563 248.7406 0002493 225.5994 119.2607  1.00272613 67512
AMC-14                  
1 32708U 08011A   26187.05719508 -.00000128  00000+0  00000+0 0  9999
2 32708  24.0321  20.2923 0040236   7.8887 350.3651  1.00420312 68353
DIRECTV 11              
1 32729U 08013A   26187.62633208 -.00000111  00000+0  00000+0 0  9991
2 32729   0.0429 214.4667 0000241 227.3670 329.0652  1.00269705 45785
ICO G1                  
1 32763U 08016A   26187.12860781 -.00000160  00000+0  00000+0 0  9999
2 32763   5.5325  36.0865 0002016  56.9850 144.4776  1.00270218 66739
VINASAT-1               
1 32767U 08018A   26187.60084712 -.00000314  00000+0  00000+0 0  9991
2 32767   0.0250 302.8791 0001411 177.8875 152.0614  1.00270915 66785
STAR ONE C2             
1 32768U 08018B   26187.84706986 -.00000262  00000+0  00000+0 0  9994
2 32768   1.2875  82.2905 0002818  37.7495  44.7279  1.00271273 66852
AMOS-3                  
1 32794U 08022A   26187.87059006  .00000073  00000+0  00000+0 0  9994
2 32794   0.5028  85.9586 0002856  77.8266 128.2676  1.00485833 82532
GALAXY 18 (G-18)        
1 32951U 08024A   26187.76418747  .00000040  00000+0  00000+0 0  9994
2 32951   0.0166 295.8171 0002939 179.6454 321.3889  1.00272470 46048
ZHONGXING-9             
1 33051U 08028A   26187.87821676 -.00000234  00000+0  00000+0 0  9997
2 33051   0.8161  85.1196 0003785   8.8925 239.3795  1.00272963 66230
SKYNET 5C               
1 33055U 08030A   26187.85636279 -.00000127  00000+0  00000+0 0  9996
2 33055   3.8360  76.8100 0004300  39.4403  99.0654  1.00270325 66151
TURKSAT 3A              
1 33056U 08030B   26187.79689725  .00000161  00000+0  00000+0 0  9991
2 33056   0.0562  79.4560 0004965   6.9332 167.2621  1.00273134 52553
ECHOSTAR 11             
1 33207U 08035A   26187.62425207 -.00000044  00000+0  00000+0 0  9990
2 33207   1.0522  83.9746 0002334  18.5914 296.9753  1.00271954 51404
SUPERBIRD-C2            
1 33274U 08038A   26187.74425404 -.00000292  00000+0  00000+0 0  9994
2 33274   2.4082  81.0269 0006263  34.2306 213.3958  1.00273065105920
INMARSAT 4-F3           
1 33278U 08039A   26187.69765066 -.00000128  00000+0  00000+0 0  9992
2 33278   4.3094  31.6786 0002716  79.1093 327.0318  1.00271053 46745
NIMIQ 4                 
1 33373U 08044A   26187.84368985 -.00000205  00000+0  00000+0 0  9996
2 33373   0.0179  37.6259 0001912  58.1105  50.7967  1.00270088 65183
GALAXY 19 (G-19)        
1 33376U 08045A   26187.84056985 -.00000124  00000+0  00000+0 0  9994
2 33376   0.0591 254.1650 0002822 234.2439   2.0042  1.00271843 65109
